47258,ONEWEB-0102,2020,109.72,148.0,+,87.89,Active,1,LEO,Russia,UK,Commercial,Communications,Soyuz,1 47258U 20100A   24316.14915612 -.00000361  00000+0 -10402-2 0  9994,2 47258  87.8850 106.7908 0001415  91.1339 268.9952 13.12439882188258,13.12439882,0.0001415,LEO
47259,ONEWEB-0109,2020,109.72,148.0,+,87.89,Active,1,LEO,Russia,UK,Commercial,Communications,Soyuz,1 47259U 20100B   24315.69986167 -.00000104  00000+0 -32470-3 0  9992,2 47259  87.8854 106.8471 0001421  90.1778 269.9514 13.12442816188023,13.12442816,0.0001421,LEO
47260,ONEWEB-0110,2020,109.72,148.0,+,87.89,Active,1,LEO,Russia,UK,Commercial,Communications,Soyuz,1 47260U 20100C   24316.18323277  .00000417  00000+0  11238-2 0  9999,2 47260  87.8850 106.7477 0001543  88.0928 272.0377 13.12445554188253,13.12445554,0.0001543,LEO
47261,ONEWEB-0111,2020,109.72,148.0,+,87.89,Active,1,LEO,Russia,UK,Commercial,Communications,Soyuz,1 47261U 20100D   24316.36652905 -.00000270  00000+0 -78616-3 0  9996,2 47261  87.8852 106.7145 0001490  92.3602 267.7697 13.12444098188119,13.12444098,0.000149,LEO
47262,ONEWEB-0114,2020,109.72,148.0,+,87.88,Active,1,LEO,Russia,UK,Commercial,Communications,Soyuz,1 47262U 20100E   24316.39735045  .00000192  00000+0  49941-3 0  9997,2 47262  87.8843 106.7175 0001241  90.9577 269.1694 13.12446812188076,13.12446812,0.0001241,LEO
47263,ONEWEB-0117,2020,109.72,148.0,+,87.89,Active,1,LEO,Russia,UK,Commercial,Communications,Soyuz,1 47263U 20100F   24316.16051969 -.00000037  00000+0 -13879-3 0  9990,2 47263  87.8854 106.7465 0001536  93.7944 266.3360 13.12446425188054,13.12446425,0.0001536,LEO
47264,ONEWEB-0118,2020,109.72,148.0,+,87.89,Active,1,LEO,Russia,UK,Commercial,Communications,Soyuz,1 47264U 20100G   24316.11673094  .00000392  00000+0  10536-2 0  9993,2 47264  87.8850 106.7580 0001245 105.9548 254.1718 13.12440426188240,13.12440426,0.0001245,LEO
47265,ONEWEB-0119,2020,109.72,148.0,+,87.88,Active,1,LEO,Russia,UK,Commercial,Communications,Soyuz,1 47265U 20100H   24316.14429314 -.00000767  00000+0 -21671-2 0  9991,2 47265  87.8849 106.7907 0001522  91.8315 268.2988 13.12441966188228,13.12441966,0.0001522,LEO
